O3B FM20                
1 44112U 19020A   26061.67029823 -.00000029  00000+0  00000+0 0  9996
2 44112   0.0516 359.6530 0002818 330.0771  30.2463  5.00115461126243
O3B FM19                
1 44113U 19020B   26058.89895873 -.00000027  00000+0  00000+0 0  9991
2 44113   0.0602 347.5601 0004795 353.9797  18.4356  5.00116325125971
O3B FM17                
1 44114U 19020C   26061.57758382 -.00000029  00000+0  00000+0 0  9996
2 44114   0.0396 339.6165 0002694 356.2567  24.1068  5.00115420126190
O3B FM18                
1 44115U 19020D   26061.52387598 -.00000029  00000+0  00000+0 0  9999
2 44115   0.0518   0.0725 0002750 340.6726  19.2372  5.00115210126319
SALSAT                  
1 46495U 20068K   26061.53547552  .00011172  00000+0  41124-3 0  9991
2 46495  97.8844  58.2509 0008864 326.6723  33.3956 15.28007427299065
O3B MPOWER F1           
1 54755U 22174A   26058.53300325 -.00000026  00000+0  00000+0 0  9991
2 54755   0.0641 351.4493 0005158   3.4086 238.9684  5.00103025 59873
O3B MPOWER F2           
1 54756U 22174B   26048.35866194 -.00000015  00000+0  00000+0 0  9990
2 54756   0.0642 348.2682 0001560 220.5550 151.1634  5.00731386 59441
O3B MPOWER F4           
1 56367U 23059A   26048.24074746 -.00000015  00000+0  00000+0 0  9995
2 56367   0.0593   7.9241 0006460 334.3658  17.6828  5.00119607 52601
